{"epoch":1784710044,"count":18256,"objects":[{"id":"56524","name":"STARLINK-6323","type":"PAYLOAD","l1":"1 56524U 23065X   26202.32534137  .00000368  00000-0  22906-4 0  9998","l2":"2 56524  43.0028 178.1095 0001909 285.4407  74.6234 15.27577135177038"},{"id":"56525","name":"STARLINK-6329","type":"PAYLOAD","l1":"1 56525U 23065Y   26202.22906662  .00000422  00000-0  24851-4 0  9996","l2":"2 56525  43.0014 189.3127 0001611 272.3519  87.7148 15.27576200176897"},{"id":"56526","name":"STARLINK-6317","type":"PAYLOAD","l1":"1 56526U 23065Z   26202.00226389  .00000315  00000-0  20988-4 0  9992","l2":"2 56526  43.0040 179.9836 0001796 274.6965  85.3682 15.27576782176985"},{"id":"56527","name":"STARLINK-6335","type":"PAYLOAD","l1":"1 56527U 23065AA  26202.31714922  .00004093  00000-0  15821-3 0  9998","l2":"2 56527  43.0023 181.4436 0001382 307.8643  52.2084 15.27571390176994"},{"id":"56528","name":"STARLINK-6337","type":"PAYLOAD","l1":"1 56528U 23065AB  26202.63637632 -.00002015  00000-0 -63760-4 0  9996","l2":"2 56528  42.9996 179.5414 0001234 263.5575  96.5136 15.27561451177047"},{"id":"56529","name":"STARLINK-6307","type":"PAYLOAD","l1":"1 56529U 23065AC  26202.18944102 -.00000415  00000-0 -55687-5 0  9992","l2":"2 56529  43.0012 167.5053 0001311 259.9035 100.1668 15.27579647177140"},{"id":"56530","name":"STARLINK-6318","type":"PAYLOAD","l1":"1 56530U 23065AD  26201.94896077  .00000837  00000-0  39930-4 0  9992","l2":"2 56530  43.0019 154.4124 0001234 263.1623  96.9088 15.27585990177277"},{"id":"56531","name":"STARLINK-6280","type":"PAYLOAD","l1":"1 56531U 23065AE  26202.27844783 -.00000025  00000-0  86237-5 0  9990","l2":"2 56531  43.0051 163.9026 0001431 278.8308  81.2381 15.27576967177190"},{"id":"56532","name":"STARLINK-6319","type":"PAYLOAD","l1":"1 56532U 23065AF  26202.59767559 -.00000985  00000-0 -26307-4 0  9998","l2":"2 56532  43.0019 161.9937 0000382 234.5552 125.5264 15.27575441177242"},{"id":"56533","name":"STARLINK-6310","type":"PAYLOAD","l1":"1 56533U 23065AG  26202.58351829  .00009975  00000-0  37147-3 0  9996","l2":"2 56533  43.0018 161.8902 0000290 263.0168  97.0651 15.27583626177248"},{"id":"56534","name":"STARLINK-6308","type":"PAYLOAD","l1":"1 56534U 23065AH  26202.27459491 -.00000243  00000-0  69426-6 0  9995","l2":"2 56534  43.0026 163.8719 0000935 282.6854  77.3894 15.27574491177195"},{"id":"56535","name":"STARLINK-6309","type":"PAYLOAD","l1":"1 56535U 23065AJ  26202.25674183 -.00000002  00000-0  94361-5 0  9999","l2":"2 56535  43.0009 192.3276 0001142 260.3845  99.6878 15.27578086176862"},{"id":"56536","name":"STARLINK-6312","type":"PAYLOAD","l1":"1 56536U 23065AK  26202.33624063  .00002318  00000-0  93658-4 0  9999","l2":"2 56536  42.9995 192.0638 0000876 275.2386  84.8365 15.27600659176872"},{"id":"56537","name":"STARLINK-6311","type":"PAYLOAD","l1":"1 56537U 23065AL  26202.26059728 -.00000230  00000-0  11544-5 0  9999","l2":"2 56537  43.0016 192.3567 0001162 269.4755  90.5964 15.27574739176864"},{"id":"56538","name":"STARLINK-6314","type":"PAYLOAD","l1":"1 56538U 23065AM  26200.95273415 -.00001172  00000-0 -33104-4 0  9997","l2":"2 56538  43.0025 171.1474 0001024 282.9146  77.1591 15.27569275176998"},{"id":"56539","name":"STARLINK-6135","type":"PAYLOAD","l1":"1 56539U 23065AN  26202.01703907 -.00000241  00000-0  77185-6 0  9995","l2":"2 56539  43.0017 193.9676 0000605 289.6223  70.4563 15.27575994176822"},{"id":"56540","name":"STARLINK-6136","type":"PAYLOAD","l1":"1 56540U 23065AP  26202.28243858 -.00000308  00000-0 -16564-5 0  9998","l2":"2 56540  43.0014 192.5166 0001106 296.5702  63.5036 15.27573978176868"},{"id":"56541","name":"STARLINK-6249","type":"PAYLOAD","l1":"1 56541U 23065AQ  26202.04194938 -.00000151  00000-0  40326-5 0  9995","l2":"2 56541  43.0017 190.7406 0001650 270.5041  89.5621 15.27572366176869"},{"id":"56542","name":"STARLINK-6266","type":"PAYLOAD","l1":"1 56542U 23065AR  26202.34011556 -.00000755  00000-0 -17936-4 0  9994","l2":"2 56542  43.0000 192.0868 0000795 277.2872  82.7889 15.27580657176878"},{"id":"56544","name":"STARLINK-6226","type":"PAYLOAD","l1":"1 56544U 23065AT  26202.38672360 -.00000453  00000-0 -69393-5 0  9996","l2":"2 56544  43.0004 188.1794 0001022 269.1865  90.8869 15.27573091176922"},{"id":"56545","name":"STARLINK-6086","type":"PAYLOAD","l1":"1 56545U 23065AU  26202.03037823  .00000097  00000-0  13052-4 0  9990","l2":"2 56545  43.0041 190.6593 0002148 299.8384  60.2255 15.27577498176863"},{"id":"56546","name":"STARLINK-6187","type":"PAYLOAD","l1":"1 56546U 23065AV  26202.03809227  .00008911  00000-0  33273-3 0  9995","l2":"2 56546  43.0016 190.7150 0001671 273.5526  86.5134 15.27601544176860"},{"id":"56547","name":"STARLINK-6291","type":"PAYLOAD","l1":"1 56547U 23065AW  26202.01624801  .00000201  00000-0  16821-4 0  9992","l2":"2 56547  43.0033 190.5470 0001155 283.5007  76.5716 15.27578367176866"},{"id":"56548","name":"STARLINK-6244","type":"PAYLOAD","l1":"1 56548U 23065AX  26202.23938924  .00000697  00000-0  34843-4 0  9994","l2":"2 56548  43.0031 189.6404 0001349 267.5537  92.5161 15.27577342176893"},{"id":"56549","name":"STARLINK-6263","type":"PAYLOAD","l1":"1 56549U 23065AY  26202.02010204  .00000559  00000-0  29848-4 0  9990","l2":"2 56549  43.0030 190.5709 0001511 304.1092  55.9616 15.27585494176869"},{"id":"56550","name":"STARLINK-6255","type":"PAYLOAD","l1":"1 56550U 23065AZ  26202.04452003 -.00000349  00000-0 -31425-5 0  9995","l2":"2 56550  43.0028 190.7597 0001611 271.1970  88.8697 15.27573966176869"},{"id":"56551","name":"STARLINK-6199","type":"PAYLOAD","l1":"1 56551U 23065BA  26202.02781480  .00001385  00000-0  59860-4 0  9999","l2":"2 56551  43.0047 190.6332 0001652 286.2933  73.7737 15.27583928176865"},{"id":"56552","name":"STARLINK-5802","type":"PAYLOAD","l1":"1 56552U 23065BB  26202.36245138 -.00000032  00000-0  83859-5 0  9997","l2":"2 56552  43.0033 188.8395 0001785 276.0270  84.0379 15.27578338176919"},{"id":"56553","name":"STARLINK-6074","type":"PAYLOAD","l1":"1 56553U 23065BC  26202.27007963 -.00000115  00000-0  53555-5 0  9992","l2":"2 56553  43.0029 189.0076 0000924 272.5205  87.5541 15.27576181176909"},{"id":"56554","name":"STARLINK-6295","type":"PAYLOAD","l1":"1 56554U 23065BD  26202.03937312  .00000171  00000-0  15762-4 0  9995","l2":"2 56554  43.0023 190.7177 0001878 273.3913  86.6724 15.27576108176866"}]}