OBJECT_NAME,OBJECT_ID,EPOCH,MEAN_MOTION,ECCENTRICITY,INCLINATION,RA_OF_ASC_NODE,ARG_OF_PERICENTER,MEAN_ANOMALY,EPHEMERIS_TYPE,CLASSIFICATION_TYPE,NORAD_CAT_ID,ELEMENT_SET_NO,REV_AT_EPOCH,BSTAR,MEAN_MOTION_DOT,MEAN_MOTION_DDOT
STARLINK-6323,2023-065X,2026-07-21T07:48:29.494368,15.27577135,.00019093,43.0028,178.1095,285.4407,74.6234,0,U,56524,999,17703,.22906391E-4,.368E-5,0
STARLINK-6329,2023-065Y,2026-07-21T05:29:51.355968,15.27576200,.0001611,43.0014,189.3127,272.3519,87.7148,0,U,56525,999,17689,.2485113E-4,.422E-5,0
STARLINK-6317,2023-065Z,2026-07-21T00:03:15.600096,15.27576782,.00017956,43.0040,179.9836,274.6965,85.3682,0,U,56526,999,17698,.2098778E-4,.315E-5,0
STARLINK-6335,2023-065AA,2026-07-21T07:36:41.692608,15.27571390,.00013823,43.0023,181.4436,307.8643,52.2084,0,U,56527,999,17699,.15820591E-3,.4093E-4,0
STARLINK-6337,2023-065AB,2026-07-21T15:16:22.914048,15.27561451,.00012343,42.9996,179.5414,263.5575,96.5136,0,U,56528,999,17704,-.63760362E-4,-.2015E-4,0
STARLINK-6307,2023-065AC,2026-07-21T04:32:47.704128,15.27579647,.00013106,43.0012,167.5053,259.9035,100.1668,0,U,56529,999,17714,-.5568748E-5,-.415E-5,0
STARLINK-6318,2023-065AD,2026-07-20T22:46:30.210528,15.27585990,.00012343,43.0019,154.4124,263.1623,96.9088,0,U,56530,999,17727,.39929685E-4,.837E-5,0
STARLINK-6280,2023-065AE,2026-07-21T06:40:57.892512,15.27576967,.00014311,43.0051,163.9026,278.8308,81.2381,0,U,56531,999,17719,.8623679E-5,-.25E-6,0
STARLINK-6319,2023-065AF,2026-07-21T14:20:39.170976,15.27575441,.00003821,43.0019,161.9937,234.5552,125.5264,0,U,56532,999,17724,-.26306667E-4,-.985E-5,0
STARLINK-6310,2023-065AG,2026-07-21T14:00:15.980256,15.27583626,.00002899,43.0018,161.8902,263.0168,97.0651,0,U,56533,999,17724,.37147032E-3,.9975E-4,0
STARLINK-6308,2023-065AH,2026-07-21T06:35:25.000224,15.27574491,.00009351,43.0026,163.8719,282.6854,77.3894,0,U,56534,999,17719,.694257E-6,-.243E-5,0
STARLINK-6309,2023-065AJ,2026-07-21T06:09:42.494112,15.27578086,.00011419,43.0009,192.3276,260.3845,99.6878,0,U,56535,999,17686,.9436123E-5,-.2E-7,0
STARLINK-6312,2023-065AK,2026-07-21T08:04:11.190432,15.27600659,.00008759,42.9995,192.0638,275.2386,84.8365,0,U,56536,999,17687,.93657743E-4,.2318E-4,0
STARLINK-6311,2023-065AL,2026-07-21T06:15:15.604992,15.27574739,.00011621,43.0016,192.3567,269.4755,90.5964,0,U,56537,999,17686,.1154429E-5,-.23E-5,0
STARLINK-6314,2023-065AM,2026-07-19T22:51:56.230560,15.27569275,.00010239,43.0025,171.1474,282.9146,77.1591,0,U,56538,999,17699,-.33104257E-4,-.1172E-4,0
STARLINK-6135,2023-065AN,2026-07-21T00:24:32.175648,15.27575994,.00006047,43.0017,193.9676,289.6223,70.4563,0,U,56539,999,17682,.771846E-6,-.241E-5,0
STARLINK-6136,2023-065AP,2026-07-21T06:46:42.693312,15.27573978,.00011064,43.0014,192.5166,296.5702,63.5036,0,U,56540,999,17686,-.1656389E-5,-.308E-5,0
STARLINK-6249,2023-065AQ,2026-07-21T01:00:24.426432,15.27572366,.000165,43.0017,190.7406,270.5041,89.5621,0,U,56541,999,17686,.4032603E-5,-.151E-5,0
STARLINK-6266,2023-065AR,2026-07-21T08:09:45.984384,15.27580657,.0000795,43.0000,192.0868,277.2872,82.7889,0,U,56542,999,17687,-.17935954E-4,-.755E-5,0
STARLINK-6226,2023-065AT,2026-07-21T09:16:52.919040,15.27573091,.00010225,43.0004,188.1794,269.1865,90.8869,0,U,56544,999,17692,-.6939262E-5,-.453E-5,0
STARLINK-6086,2023-065AU,2026-07-21T00:43:44.679072,15.27577498,.00021477,43.0041,190.6593,299.8384,60.2255,0,U,56545,999,17686,.13051914E-4,.97E-6,0
STARLINK-6187,2023-065AV,2026-07-21T00:54:51.172128,15.27601544,.00016713,43.0016,190.7150,273.5526,86.5134,0,U,56546,999,17686,.33272704E-3,.8911E-4,0
STARLINK-6291,2023-065AW,2026-07-21T00:23:23.828064,15.27578367,.00011547,43.0033,190.5470,283.5007,76.5716,0,U,56547,999,17686,.16820873E-4,.201E-5,0
STARLINK-6244,2023-065AX,2026-07-21T05:44:43.230336,15.27577342,.00013488,43.0031,189.6404,267.5537,92.5161,0,U,56548,999,17689,.34842592E-4,.697E-5,0
STARLINK-6263,2023-065AY,2026-07-21T00:28:56.816256,15.27585494,.00015109,43.0030,190.5709,304.1092,55.9616,0,U,56549,999,17686,.29848367E-4,.559E-5,0
STARLINK-6255,2023-065AZ,2026-07-21T01:04:06.530592,15.27573966,.00016113,43.0028,190.7597,271.1970,88.8697,0,U,56550,999,17686,-.314248E-5,-.349E-5,0
STARLINK-6199,2023-065BA,2026-07-21T00:40:03.198720,15.27583928,.00016515,43.0047,190.6332,286.2933,73.7737,0,U,56551,999,17686,.59860364E-4,.1385E-4,0
STARLINK-5802,2023-065BB,2026-07-21T08:41:55.799232,15.27578338,.00017847,43.0033,188.8395,276.0270,84.0379,0,U,56552,999,17691,.8385867E-5,-.32E-6,0
STARLINK-6074,2023-065BC,2026-07-21T06:28:54.880032,15.27576181,.00009237,43.0029,189.0076,272.5205,87.5541,0,U,56553,999,17690,.5355539E-5,-.115E-5,0
STARLINK-6295,2023-065BD,2026-07-21T00:56:41.837568,15.27576108,.00018778,43.0023,190.7177,273.3913,86.6724,0,U,56554,999,17686,.15761594E-4,.171E-5,0
